[{"OBJECT_NAME":"STARLINK-3583","OBJECT_ID":"2022-022AA","EPOCH":"2026-03-17T00:37:21.787104","MEAN_MOTION":15.08832167,"ECCENTRICITY":0.00014775,"INCLINATION":53.2185,"RA_OF_ASC_NODE":336.1864,"ARG_OF_PERICENTER":110.9846,"MEAN_ANOMALY":249.1305,"EPHEMERIS_TYPE":0,"CLASSIFICATION_TYPE":"U","NORAD_CAT_ID":51876,"ELEMENT_SET_NO":999,"REV_AT_EPOCH":22422,"BSTAR":-7.5489141e-5,"MEAN_MOTION_DOT":-1.489e-5,"MEAN_MOTION_DDOT":0},{"OBJECT_NAME":"STARLINK-3556","OBJECT_ID":"2022-022AB","EPOCH":"2026-03-17T00:12:11.378592","MEAN_MOTION":15.0883469,"ECCENTRICITY":0.00014536,"INCLINATION":53.2193,"RA_OF_ASC_NODE":326.2648,"ARG_OF_PERICENTER":87.0038,"MEAN_ANOMALY":273.112,"EPHEMERIS_TYPE":0,"CLASSIFICATION_TYPE":"U","NORAD_CAT_ID":51877,"ELEMENT_SET_NO":999,"REV_AT_EPOCH":22435,"BSTAR":4.5113668e-5,"MEAN_MOTION_DOT":4.3e-6,"MEAN_MOTION_DDOT":0},{"OBJECT_NAME":"STARLINK-3575","OBJECT_ID":"2022-022AC","EPOCH":"2026-03-17T00:26:45.370752","MEAN_MOTION":15.08832117,"ECCENTRICITY":0.00013913,"INCLINATION":53.219,"RA_OF_ASC_NODE":336.2204,"ARG_OF_PERICENTER":93.6354,"MEAN_ANOMALY":266.4797,"EPHEMERIS_TYPE":0,"CLASSIFICATION_TYPE":"U","NORAD_CAT_ID":51878,"ELEMENT_SET_NO":999,"REV_AT_EPOCH":22422,"BSTAR":-3.277512e-6,"MEAN_MOTION_DOT":-3.4e-6,"MEAN_MOTION_DDOT":0},{"OBJECT_NAME":"STARLINK-3572","OBJECT_ID":"2022-022AD","EPOCH":"2026-03-17T04:47:44.232000","MEAN_MOTION":15.08838966,"ECCENTRICITY":0.0001287,"INCLINATION":53.2178,"RA_OF_ASC_NODE":325.4077,"ARG_OF_PERICENTER":91.2548,"MEAN_ANOMALY":268.8591,"EPHEMERIS_TYPE":0,"CLASSIFICATION_TYPE":"U","NORAD_CAT_ID":51879,"ELEMENT_SET_NO":999,"REV_AT_EPOCH":22438,"BSTAR":2.3858336e-5,"MEAN_MOTION_DOT":9.2e-7,"MEAN_MOTION_DDOT":0},{"OBJECT_NAME":"STARLINK-3566","OBJECT_ID":"2022-022AE","EPOCH":"2026-03-17T00:31:59.097792","MEAN_MOTION":15.08855031,"ECCENTRICITY":0.00013278,"INCLINATION":53.2168,"RA_OF_ASC_NODE":335.9186,"ARG_OF_PERICENTER":59.4711,"MEAN_ANOMALY":300.6412,"EPHEMERIS_TYPE":0,"CLASSIFICATION_TYPE":"U","NORAD_CAT_ID":51880,"ELEMENT_SET_NO":999,"REV_AT_EPOCH":22422,"BSTAR":0.00015543314,"MEAN_MOTION_DOT":2.188e-5,"MEAN_MOTION_DDOT":0},{"OBJECT_NAME":"STARLINK-3504","OBJECT_ID":"2022-022AF","EPOCH":"2026-03-16T23:50:58.779168","MEAN_MOTION":15.08843853,"ECCENTRICITY":0.00012706,"INCLINATION":53.2176,"RA_OF_ASC_NODE":326.3341,"ARG_OF_PERICENTER":90.1909,"MEAN_ANOMALY":269.9229,"EPHEMERIS_TYPE":0,"CLASSIFICATION_TYPE":"U","NORAD_CAT_ID":51881,"ELEMENT_SET_NO":999,"REV_AT_EPOCH":22440,"BSTAR":-6.8174448e-5,"MEAN_MOTION_DOT":-1.373e-5,"MEAN_MOTION_DDOT":0},{"OBJECT_NAME":"STARLINK-3570","OBJECT_ID":"2022-022AG","EPOCH":"2026-03-17T00:08:16.117440","MEAN_MOTION":15.08834846,"ECCENTRICITY":0.00014561,"INCLINATION":53.2186,"RA_OF_ASC_NODE":326.2877,"ARG_OF_PERICENTER":94.7941,"MEAN_ANOMALY":265.3218,"EPHEMERIS_TYPE":0,"CLASSIFICATION_TYPE":"U","NORAD_CAT_ID":51882,"ELEMENT_SET_NO":999,"REV_AT_EPOCH":22440,"BSTAR":1.2249522e-5,"MEAN_MOTION_DOT":-9.3e-7,"MEAN_MOTION_DDOT":0},{"OBJECT_NAME":"STARLINK-3576","OBJECT_ID":"2022-022AH","EPOCH":"2026-03-17T00:06:55.290240","MEAN_MOTION":15.0883917,"ECCENTRICITY":0.00012312,"INCLINATION":53.2184,"RA_OF_ASC_NODE":326.4641,"ARG_OF_PERICENTER":82.4759,"MEAN_ANOMALY":277.6373,"EPHEMERIS_TYPE":0,"CLASSIFICATION_TYPE":"U","NORAD_CAT_ID":51883,"ELEMENT_SET_NO":999,"REV_AT_EPOCH":22434,"BSTAR":-0.00012506948,"MEAN_MOTION_DOT":-2.278e-5,"MEAN_MOTION_DDOT":0},{"OBJECT_NAME":"STARLINK-3577","OBJECT_ID":"2022-022AJ","EPOCH":"2026-03-16T23:56:17.531232","MEAN_MOTION":15.08833584,"ECCENTRICITY":0.00013989,"INCLINATION":53.2184,"RA_OF_ASC_NODE":326.3158,"ARG_OF_PERICENTER":88.7088,"MEAN_ANOMALY":271.4064,"EPHEMERIS_TYPE":0,"CLASSIFICATION_TYPE":"U","NORAD_CAT_ID":51884,"ELEMENT_SET_NO":999,"REV_AT_EPOCH":22443,"BSTAR":7.993274e-6,"MEAN_MOTION_DOT":-1.61e-6,"MEAN_MOTION_DDOT":0},{"OBJECT_NAME":"STARLINK-3584","OBJECT_ID":"2022-022AK","EPOCH":"2026-03-16T23:35:04.773696","MEAN_MOTION":15.08847453,"ECCENTRICITY":0.00016347,"INCLINATION":53.2182,"RA_OF_ASC_NODE":326.3845,"ARG_OF_PERICENTER":83.955,"MEAN_ANOMALY":276.1628,"EPHEMERIS_TYPE":0,"CLASSIFICATION_TYPE":"U","NORAD_CAT_ID":51885,"ELEMENT_SET_NO":999,"REV_AT_EPOCH":22434,"BSTAR":7.211548e-6,"MEAN_MOTION_DOT":-1.73e-6,"MEAN_MOTION_DDOT":0},{"OBJECT_NAME":"STARLINK-3565","OBJECT_ID":"2022-022AL","EPOCH":"2026-03-16T23:45:41.320512","MEAN_MOTION":15.08844325,"ECCENTRICITY":0.00010325,"INCLINATION":53.2176,"RA_OF_ASC_NODE":326.3485,"ARG_OF_PERICENTER":111.8101,"MEAN_ANOMALY":248.3001,"EPHEMERIS_TYPE":0,"CLASSIFICATION_TYPE":"U","NORAD_CAT_ID":51886,"ELEMENT_SET_NO":999,"REV_AT_EPOCH":22435,"BSTAR":-8.018977e-6,"MEAN_MOTION_DOT":-4.15e-6,"MEAN_MOTION_DDOT":0},{"OBJECT_NAME":"STARLINK-3551","OBJECT_ID":"2022-022AM","EPOCH":"2026-03-16T23:29:46.807008","MEAN_MOTION":15.08845902,"ECCENTRICITY":0.00012388,"INCLINATION":53.218,"RA_OF_ASC_NODE":326.4003,"ARG_OF_PERICENTER":93.1393,"MEAN_ANOMALY":266.9741,"EPHEMERIS_TYPE":0,"CLASSIFICATION_TYPE":"U","NORAD_CAT_ID":51887,"ELEMENT_SET_NO":999,"REV_AT_EPOCH":22434,"BSTAR":-3.1196909e-5,"MEAN_MOTION_DOT":-7.84e-6,"MEAN_MOTION_DDOT":0},{"OBJECT_NAME":"STARLINK-3536","OBJECT_ID":"2022-022AN","EPOCH":"2026-03-16T23:40:23.930112","MEAN_MOTION":15.08825393,"ECCENTRICITY":0.00015729,"INCLINATION":53.2176,"RA_OF_ASC_NODE":326.3686,"ARG_OF_PERICENTER":87.7898,"MEAN_ANOMALY":272.3274,"EPHEMERIS_TYPE":0,"CLASSIFICATION_TYPE":"U","NORAD_CAT_ID":51888,"ELEMENT_SET_NO":999,"REV_AT_EPOCH":22435,"BSTAR":0.00018989453,"MEAN_MOTION_DOT":2.734e-5,"MEAN_MOTION_DDOT":0},{"OBJECT_NAME":"STARLINK-3547","OBJECT_ID":"2022-022AP","EPOCH":"2026-03-16T23:13:53.109984","MEAN_MOTION":15.08845598,"ECCENTRICITY":0.00014054,"INCLINATION":53.218,"RA_OF_ASC_NODE":326.4508,"ARG_OF_PERICENTER":87.606,"MEAN_ANOMALY":272.5093,"EPHEMERIS_TYPE":0,"CLASSIFICATION_TYPE":"U","NORAD_CAT_ID":51889,"ELEMENT_SET_NO":999,"REV_AT_EPOCH":22434,"BSTAR":-4.7792757e-5,"MEAN_MOTION_DOT":-1.049e-5,"MEAN_MOTION_DDOT":0},{"OBJECT_NAME":"STARLINK-3549","OBJECT_ID":"2022-022AR","EPOCH":"2026-03-16T23:08:34.894464","MEAN_MOTION":15.08841407,"ECCENTRICITY":0.00014553,"INCLINATION":53.2176,"RA_OF_ASC_NODE":326.4672,"ARG_OF_PERICENTER":91.0927,"MEAN_ANOMALY":269.0232,"EPHEMERIS_TYPE":0,"CLASSIFICATION_TYPE":"U","NORAD_CAT_ID":51891,"ELEMENT_SET_NO":999,"REV_AT_EPOCH":22439,"BSTAR":4.7656843e-5,"MEAN_MOTION_DOT":4.71e-6,"MEAN_MOTION_DDOT":0},{"OBJECT_NAME":"STARLINK-3587","OBJECT_ID":"2022-022AS","EPOCH":"2026-03-16T23:19:11.615808","MEAN_MOTION":15.08832814,"ECCENTRICITY":0.00014301,"INCLINATION":53.2182,"RA_OF_ASC_NODE":326.4334,"ARG_OF_PERICENTER":87.8288,"MEAN_ANOMALY":272.2868,"EPHEMERIS_TYPE":0,"CLASSIFICATION_TYPE":"U","NORAD_CAT_ID":51892,"ELEMENT_SET_NO":999,"REV_AT_EPOCH":22434,"BSTAR":-2.0089665e-5,"MEAN_MOTION_DOT":-6.08e-6,"MEAN_MOTION_DDOT":0}]
