STARLINK-3583           
1 51876U 22022AA  26076.02594661 -.00001489  00000+0 -75489-4 0  9999
2 51876  53.2185 336.1864 0001477 110.9846 249.1305 15.08832167224229
STARLINK-3556           
1 51877U 22022AB  26076.00846503  .00000430  00000+0  45114-4 0  9998
2 51877  53.2193 326.2648 0001453  87.0038 273.1120 15.08834690224359
STARLINK-3575           
1 51878U 22022AC  26076.01858068 -.00000340  00000+0 -32775-5 0  9991
2 51878  53.2190 336.2204 0001391  93.6354 266.4797 15.08832117224224
STARLINK-3572           
1 51879U 22022AD  26076.19981750  .00000092  00000+0  23858-4 0  9999
2 51879  53.2178 325.4077 0001287  91.2548 268.8591 15.08838966224385
STARLINK-3566           
1 51880U 22022AE  26076.02221178  .00002188  00000+0  15543-3 0  9993
2 51880  53.2168 335.9186 0001327  59.4711 300.6412 15.08855031224228
STARLINK-3504           
1 51881U 22022AF  26075.99373587 -.00001373  00000+0 -68174-4 0  9997
2 51881  53.2176 326.3341 0001270  90.1909 269.9229 15.08843853224405
STARLINK-3570           
1 51882U 22022AG  26076.00574210 -.00000093  00000+0  12250-4 0  9998
2 51882  53.2186 326.2877 0001456  94.7941 265.3218 15.08834846224402
STARLINK-3576           
1 51883U 22022AH  26076.00480660 -.00002278  00000+0 -12507-3 0  9996
2 51883  53.2184 326.4641 0001231  82.4759 277.6373 15.08839170224340
STARLINK-3577           
1 51884U 22022AJ  26075.99742513 -.00000161  00000+0  79933-5 0  9998
2 51884  53.2184 326.3158 0001398  88.7088 271.4064 15.08833584224433
STARLINK-3584           
1 51885U 22022AK  26075.98269414 -.00000173  00000+0  72115-5 0  9990
2 51885  53.2182 326.3845 0001634  83.9550 276.1628 15.08847453224347
STARLINK-3565           
1 51886U 22022AL  26075.99006158 -.00000415  00000+0 -80190-5 0  9998
2 51886  53.2176 326.3485 0001032 111.8101 248.3001 15.08844325224358
STARLINK-3551           
1 51887U 22022AM  26075.97901397 -.00000784  00000+0 -31197-4 0  9997
2 51887  53.2180 326.4003 0001238  93.1393 266.9741 15.08845902224342
STARLINK-3536           
1 51888U 22022AN  26075.98638808  .00002734  00000+0  18989-3 0  9991
2 51888  53.2176 326.3686 0001572  87.7898 272.3274 15.08825393224359
STARLINK-3547           
1 51889U 22022AP  26075.96797581 -.00001049  00000+0 -47793-4 0  9990
2 51889  53.2180 326.4508 0001405  87.6060 272.5093 15.08845598224343
STARLINK-3549           
1 51891U 22022AR  26075.96429276  .00000471  00000+0  47657-4 0  9991
2 51891  53.2176 326.4672 0001455  91.0927 269.0232 15.08841407224395
STARLINK-3587           
1 51892U 22022AS  26075.97166222 -.00000608  00000+0 -20090-4 0  9998
2 51892  53.2182 326.4334 0001430  87.8288 272.2868 15.08832814224342
